start=new Date('2021-10-16T00:00:00.000Z').valueOf();
sats=[{"ARG_OF_PERICENTER":"65.3858","TIME_SYSTEM":"UTC","RA_OF_ASC_NODE":"222.0154","MEAN_MOTION_DDOT":"0.0000000000000","INCLINATION":"53.0556","TLE_LINE1":"1 47780U 21017BL  21288.51495191 -.00001555  00000-0 -85515-4 0  9999","OBJECT_NAME":"STARLINK-2213","DECAY_DATE":null,"REF_FRAME":"TEME","COUNTRY_CODE":"US","SEMIMAJOR_AXIS":"6925.383","OBJECT_TYPE":"PAYLOAD","LAUNCH_DATE":"2021-03-04","PERIOD":"95.593","REV_AT_EPOCH":"3569","MEAN_ELEMENT_THEORY":"SGP4","MEAN_MOTION_DOT":"-0.00001555","GP_ID":"187281095","FILE":"3165217","SITE":"AFETR","EPOCH":"2021-10-15T12:21:31.845024","PERIAPSIS":"546.224","NORAD_CAT_ID":"47780","ELEMENT_SET_NO":"999","BSTAR":"-0.00008551500000","APOAPSIS":"548.271","EPHEMERIS_TYPE":"0","OBJECT_ID":"2021-017BL","ECCENTRICITY":"0.00014780","MEAN_ANOMALY":"294.7285","CENTER_NAME":"EARTH","MEAN_MOTION":"15.06388837","RCS_SIZE":"LARGE","TLE_LINE2":"2 47780  53.0556 222.0154 0001478  65.3858 294.7285 15.06388837 35692","CLASSIFICATION_TYPE":"U"},{"LAUNCH_DATE":"2021-03-04","PERIOD":"95.592","INCLINATION":"53.0559","MEAN_MOTION_DDOT":"0.0000000000000","TIME_SYSTEM":"UTC","ARG_OF_PERICENTER":"68.6575","RA_OF_ASC_NODE":"221.8307","SEMIMAJOR_AXIS":"6925.335","OBJECT_TYPE":"PAYLOAD","REF_FRAME":"TEME","TLE_LINE1":"1 47781U 21017BM  21288.55643038  .00001349  00000-0  10946-3 0  9993","OBJECT_NAME":"STARLINK-2223","DECAY_DATE":null,"COUNTRY_CODE":"US","BSTAR":"0.00010946000000","PERIAPSIS":"546.081","NORAD_CAT_ID":"47781","ELEMENT_SET_NO":"999","EPHEMERIS_TYPE":"0","APOAPSIS":"548.318","SITE":"AFETR","FILE":"3165217","EPOCH":"2021-10-15T13:21:15.584832","MEAN_MOTION":"15.06404502","CENTER_NAME":"EARTH","CLASSIFICATION_TYPE":"U","TLE_LINE2":"2 47781  53.0559 221.8307 0001615  68.6575 291.4586 15.06404502 35650","RCS_SIZE":"LARGE","OBJECT_ID":"2021-017BM","ECCENTRICITY":"0.00016150","MEAN_ANOMALY":"291.4586","MEAN_ELEMENT_THEORY":"SGP4","MEAN_MOTION_DOT":"0.00001349","REV_AT_EPOCH":"3565","GP_ID":"187279843"},{"PERIOD":"95.593","LAUNCH_DATE":"2021-03-11","OBJECT_NAME":"STARLINK-2257","TLE_LINE1":"1 47787U 21018A   21288.64123312 -.00002041  00000-0 -11824-3 0  9996","DECAY_DATE":null,"REF_FRAME":"TEME","COUNTRY_CODE":"US","SEMIMAJOR_AXIS":"6925.401","OBJECT_TYPE":"PAYLOAD","ARG_OF_PERICENTER":"64.0852","TIME_SYSTEM":"UTC","RA_OF_ASC_NODE":"261.4547","MEAN_MOTION_DDOT":"0.0000000000000","INCLINATION":"53.0560","OBJECT_ID":"2021-018A","ECCENTRICITY":"0.00015620","MEAN_ANOMALY":"296.0298","CENTER_NAME":"EARTH","MEAN_MOTION":"15.06382895","RCS_SIZE":"LARGE","TLE_LINE2":"2 47787  53.0560 261.4547 0001562  64.0852 296.0298 15.06382895 34529","CLASSIFICATION_TYPE":"U","FILE":"3165217","SITE":"AFETR","EPOCH":"2021-10-15T15:23:22.541568","PERIAPSIS":"546.184","NORAD_CAT_ID":"47787","ELEMENT_SET_NO":"999","BSTAR":"-0.00011824000000","APOAPSIS":"548.348","EPHEMERIS_TYPE":"0","GP_ID":"187279594","REV_AT_EPOCH":"3452","MEAN_ELEMENT_THEORY":"SGP4","MEAN_MOTION_DOT":"-0.00002041"},{"OBJECT_ID":"2021-018B","ECCENTRICITY":"0.00015770","MEAN_ANOMALY":"273.2095","MEAN_MOTION":"15.16706876","CENTER_NAME":"EARTH","TLE_LINE2":"2 47788  53.0552 235.7511 0001577  86.9079 273.2095 15.16706876 34898","CLASSIFICATION_TYPE":"U","RCS_SIZE":"LARGE","SITE":"AFETR","FILE":"3165217","EPOCH":"2021-10-15T13:51:26.988480","BSTAR":"-0.01549100000000","NORAD_CAT_ID":"47788","PERIAPSIS":"514.716","ELEMENT_SET_NO":"999","EPHEMERIS_TYPE":"0","APOAPSIS":"516.891","GP_ID":"187280845","REV_AT_EPOCH":"3489","MEAN_ELEMENT_THEORY":"SGP4","MEAN_MOTION_DOT":"-0.00295357","PERIOD":"94.943","LAUNCH_DATE":"2021-03-11","REF_FRAME":"TEME","TLE_LINE1":"1 47788U 21018B   21288.57739570 -.00295357  00000-0 -15491-1 0  9994","OBJECT_NAME":"STARLINK-2314","DECAY_DATE":null,"COUNTRY_CODE":"US","SEMIMAJOR_AXIS":"6893.938","OBJECT_TYPE":"PAYLOAD","TIME_SYSTEM":"UTC","ARG_OF_PERICENTER":"86.9079","RA_OF_ASC_NODE":"235.7511","MEAN_MOTION_DDOT":"0.0000000000000","INCLINATION":"53.0552"},{"GP_ID":"187280596","REV_AT_EPOCH":"3480","MEAN_MOTION_DOT":"0.00001192","MEAN_ELEMENT_THEORY":"SGP4","MEAN_ANOMALY":"289.8427","ECCENTRICITY":"0.00017130","OBJECT_ID":"2021-018C","TLE_LINE2":"2 47789  53.0558 241.7628 0001713  70.2746 289.8427 15.06394621 34803","CLASSIFICATION_TYPE":"U","RCS_SIZE":"MEDIUM","MEAN_MOTION":"15.06394621","CENTER_NAME":"EARTH","EPOCH":"2021-10-15T13:39:50.956128","SITE":"AFETR","FILE":"3165217","EPHEMERIS_TYPE":"0","APOAPSIS":"548.416","BSTAR":"0.00009889300000","NORAD_CAT_ID":"47789","PERIAPSIS":"546.044","ELEMENT_SET_NO":"999","COUNTRY_CODE":"US","REF_FRAME":"TEME","DECAY_DATE":null,"TLE_LINE1":"1 47789U 21018C   21288.56933977  .00001192  00000-0  98893-4 0  9991","OBJECT_NAME":"STARLINK-2315","OBJECT_TYPE":"PAYLOAD","SEMIMAJOR_AXIS":"6925.365","RA_OF_ASC_NODE":"241.7628","TIME_SYSTEM":"UTC","ARG_OF_PERICENTER":"70.2746","INCLINATION":"53.0558","MEAN_MOTION_DDOT":"0.0000000000000","PERIOD":"95.592","LAUNCH_DATE":"2021-03-11"},{"MEAN_ANOMALY":"344.6207","ECCENTRICITY":"0.00022040","OBJECT_ID":"2021-018D","RCS_SIZE":"LARGE","TLE_LINE2":"2 47790  53.0533 232.9269 0002204  15.4858 344.6207 15.27801142 34925","CLASSIFICATION_TYPE":"U","CENTER_NAME":"EARTH","MEAN_MOTION":"15.27801142","EPOCH":"2021-10-15T11:17:58.355520","FILE":"3165217","SITE":"AFETR","APOAPSIS":"483.901","EPHEMERIS_TYPE":"0","PERIAPSIS":"480.877","NORAD_CAT_ID":"47790","ELEMENT_SET_NO":"999","BSTAR":"-0.01709200000000","GP_ID":"187279344","REV_AT_EPOCH":"3492","MEAN_MOTION_DOT":"-0.00443635","MEAN_ELEMENT_THEORY":"SGP4","PERIOD":"94.253","LAUNCH_DATE":"2021-03-11","COUNTRY_CODE":"US","TLE_LINE1":"1 47790U 21018D   21288.47081430 -.00443635  00000-0 -17092-1 0  9994","OBJECT_NAME":"STARLINK-2319","DECAY_DATE":null,"REF_FRAME":"TEME","OBJECT_TYPE":"PAYLOAD","SEMIMAJOR_AXIS":"6860.524","RA_OF_ASC_NODE":"232.9269","ARG_OF_PERICENTER":"15.4858","TIME_SYSTEM":"UTC","MEAN_MOTION_DDOT":"0.0000000000000","INCLINATION":"53.0533"},{"LAUNCH_DATE":"2021-03-11","PERIOD":"95.593","RA_OF_ASC_NODE":"261.4942","ARG_OF_PERICENTER":"83.7401","TIME_SYSTEM":"UTC","INCLINATION":"53.0569","MEAN_MOTION_DDOT":"0.0000000000000","COUNTRY_CODE":"US","OBJECT_NAME":"STARLINK-2322","TLE_LINE1":"1 47791U 21018E   21288.63017477 -.00001575  00000-0 -86890-4 0  9991","DECAY_DATE":null,"REF_FRAME":"TEME","OBJECT_TYPE":"PAYLOAD","SEMIMAJOR_AXIS":"6925.407","EPOCH":"2021-10-15T15:07:27.100128","FILE":"3165217","SITE":"AFETR","APOAPSIS":"548.271","EPHEMERIS_TYPE":"0","PERIAPSIS":"546.272","ELEMENT_SET_NO":"999","NORAD_CAT_ID":"47791","BSTAR":"-0.00008689000000","ECCENTRICITY":"0.00014430","MEAN_ANOMALY":"276.3752","OBJECT_ID":"2021-018E","RCS_SIZE":"LARGE","TLE_LINE2":"2 47791  53.0569 261.4942 0001443  83.7401 276.3752 15.06381051 34538","CLASSIFICATION_TYPE":"U","CENTER_NAME":"EARTH","MEAN_MOTION":"15.06381051","REV_AT_EPOCH":"3453","MEAN_MOTION_DOT":"-0.00001575","MEAN_ELEMENT_THEORY":"SGP4","GP_ID":"187280094"},{"LAUNCH_DATE":"2021-03-11","PERIOD":"95.592","INCLINATION":"53.0563","MEAN_MOTION_DDOT":"0.0000000000000","RA_OF_ASC_NODE":"241.7368","TIME_SYSTEM":"UTC","ARG_OF_PERICENTER":"69.9096","OBJECT_TYPE":"PAYLOAD","SEMIMAJOR_AXIS":"6925.362","COUNTRY_CODE":"US","REF_FRAME":"TEME","TLE_LINE1":"1 47792U 21018F   21288.57671442 -.00000936  00000-0 -43950-4 0  9993","DECAY_DATE":null,"OBJECT_NAME":"STARLINK-2334","EPHEMERIS_TYPE":"0","APOAPSIS":"548.292","BSTAR":"-0.00004395000000","NORAD_CAT_ID":"47792","PERIAPSIS":"546.162","ELEMENT_SET_NO":"999","EPOCH":"2021-10-15T13:50:28.125888","SITE":"AFETR","FILE":"3165217","TLE_LINE2":"2 47792  53.0563 241.7368 0001538  69.9096 290.2058 15.06395667 34809","CLASSIFICATION_TYPE":"U","RCS_SIZE":"LARGE","MEAN_MOTION":"15.06395667","CENTER_NAME":"EARTH","ECCENTRICITY":"0.00015380","MEAN_ANOMALY":"290.2058","OBJECT_ID":"2021-018F","MEAN_MOTION_DOT":"-0.00000936","MEAN_ELEMENT_THEORY":"SGP4","REV_AT_EPOCH":"3480","GP_ID":"187280346"},{"ARG_OF_PERICENTER":"71.8549","TIME_SYSTEM":"UTC","RA_OF_ASC_NODE":"241.6620","MEAN_MOTION_DDOT":"0.0000000000000","INCLINATION":"53.0555","TLE_LINE1":"1 47793U 21018G   21288.59144989  .00000975  00000-0  84309-4 0  9991","OBJECT_NAME":"STARLINK-2338","DECAY_DATE":null,"REF_FRAME":"TEME","COUNTRY_CODE":"US","SEMIMAJOR_AXIS":"6925.344","OBJECT_TYPE":"PAYLOAD","LAUNCH_DATE":"2021-03-11","PERIOD":"95.592","REV_AT_EPOCH":"3479","MEAN_ELEMENT_THEORY":"SGP4","MEAN_MOTION_DOT":"0.00000975","GP_ID":"187281096","FILE":"3165217","SITE":"AFETR","EPOCH":"2021-10-15T14:11:41.270496","PERIAPSIS":"546.200","NORAD_CAT_ID":"47793","ELEMENT_SET_NO":"999","BSTAR":"0.00008430900000","APOAPSIS":"548.219","EPHEMERIS_TYPE":"0","OBJECT_ID":"2021-018G","ECCENTRICITY":"0.00014570","MEAN_ANOMALY":"288.2599","CENTER_NAME":"EARTH","MEAN_MOTION":"15.06401327","RCS_SIZE":"LARGE","TLE_LINE2":"2 47793  53.0555 241.6620 0001457  71.8549 288.2599 15.06401327 34792","CLASSIFICATION_TYPE":"U"},{"INCLINATION":"53.0571","MEAN_MOTION_DDOT":"0.0000000000000","RA_OF_ASC_NODE":"241.6574","TIME_SYSTEM":"UTC","ARG_OF_PERICENTER":"62.9193","OBJECT_TYPE":"PAYLOAD","SEMIMAJOR_AXIS":"6925.393","COUNTRY_CODE":"US","REF_FRAME":"TEME","OBJECT_NAME":"STARLINK-2341","TLE_LINE1":"1 47794U 21018H   21288.59515586 -.00001514  00000-0 -82772-4 0  9991","DECAY_DATE":null,"LAUNCH_DATE":"2021-03-11","PERIOD":"95.593","MEAN_MOTION_DOT":"-0.00001514","MEAN_ELEMENT_THEORY":"SGP4","REV_AT_EPOCH":"3480","GP_ID":"187279844","EPHEMERIS_TYPE":"0","APOAPSIS":"548.389","BSTAR":"-0.00008277200000","NORAD_CAT_ID":"47794","PERIAPSIS":"546.127","ELEMENT_SET_NO":"999","EPOCH":"2021-10-15T14:17:01.466304","SITE":"AFETR","FILE":"3165217","TLE_LINE2":"2 47794  53.0571 241.6574 0001633  62.9193 297.1963 15.06385584 34803","CLASSIFICATION_TYPE":"U","RCS_SIZE":"LARGE","MEAN_MOTION":"15.06385584","CENTER_NAME":"EARTH","MEAN_ANOMALY":"297.1963","ECCENTRICITY":"0.00016330","OBJECT_ID":"2021-018H"}];
